COMMENT,ORIGINATOR,NORAD_CAT_ID,OBJECT_NAME,OBJECT_TYPE,CLASSIFICATION_TYPE,INTLDES,EPOCH,EPOCH_MICROSECONDS,MEAN_MOTION,ECCENTRICITY,INCLINATION,RA_OF_ASC_NODE,ARG_OF_PERICENTER,MEAN_ANOMALY,EPHEMERIS_TYPE,ELEMENT_SET_NO,REV_AT_EPOCH,BSTAR,MEAN_MOTION_DOT,MEAN_MOTION_DDOT,FILE,TLE_LINE0,TLE_LINE1,TLE_LINE2,OBJECT_ID,OBJECT_NUMBER,SEMIMAJOR_AXIS,PERIOD,APOGEE,PERIGEE,DECAYED
GENERATED VIA SPACETRACK.ORG API,18 SPCS,42749,ECHOSTAR 21,PAYLOAD,U,17032A,2024-03-03 13:43:52,427712,1.0027132,0.0002319,2.7246,317.5971,22.0543,38.3744,0,999,2473,0,0.00000075,0,4206173,0 ECHOSTAR 21,1 42749U 17032A   24063.57213458  .00000075  00000-0  00000-0 0  9991,2 42749   2.7246 317.5971 0002319  22.0543  38.3744  1.00271320 24734,2017-032A,42749,42164.862,1436.104,35796.505,35776.949,0
GENERATED VIA SPACETRACK.ORG API,18 SPCS,33373,NIMIQ 4,PAYLOAD,U,08044A,2024-03-03 13:17:25,970784,1.00272524,0.0001891,0.0108,141.2911,198.0201,299.8225,0,999,5660,0,-0.00000212,0,4206173,0 NIMIQ 4,1 33373U 08044A   24063.55377281 -.00000212  00000-0  00000-0 0  9994,2 33373   0.0108 141.2911 0001891 198.0201 299.8225  1.00272524 56606,2008-044A,33373,42164.525,1436.086,35794.363,35778.416,0
GENERATED VIA SPACETRACK.ORG API,18 SPCS,38699,TITAN 3C TRANSTAGE DEB,DEBRIS,U,68081Z,2024-03-03 13:17:11,649120,1.00848518,0.0099684,1.3626,338.7872,344.5646,189.5018,0,999,4344,0,-0.00000062,0,4206173,0 TITAN 3C TRANSTAGE DEB,1 38699U 68081Z   24063.55360705 -.00000062  00000-0  00000-0 0  9993,2 38699   1.3626 338.7872 0099684 344.5646 189.5018  1.00848518 43443,1968-081Z,38699,42003.824,1427.884,36044.400,35206.978,0
GENERATED VIA SPACETRACK.ORG API,18 SPCS,29162,EUTE 113 WEST A(SATMEX 6,PAYLOAD,U,06020A,2024-03-03 12:43:33,899808,1.00274715,0.0003134,0.205,99.4869,244.6554,255.6517,0,999,6508,0,-0.0000003,0,4205842,0 EUTE 113 WEST A(SATMEX 6,1 29162U 06020A   24063.53025347 -.00000030  00000-0  00000+0 0  9995,2 29162   0.2050  99.4869 0003134 244.6554 255.6517  1.00274715 65082,2006-020A,29162,42163.911,1436.055,35798.990,35772.561,0
GENERATED VIA SPACETRACK.ORG API,18 SPCS,29162,EUTE 113 WEST A(SATMEX 6,PAYLOAD,U,06020A,2024-03-03 12:43:33,899808,1.00274715,0.0003134,0.205,99.4869,244.6554,255.6517,0,999,6509,0,-0.0000003,0,4206173,0 EUTE 113 WEST A(SATMEX 6,1 29162U 06020A   24063.53025347 -.00000030  00000-0  00000-0 0  9996,2 29162   0.2050  99.4869 0003134 244.6554 255.6517  1.00274715 65093,2006-020A,29162,42163.911,1436.055,35798.990,35772.561,0
GENERATED VIA SPACETRACK.ORG API,18 SPCS,29055,ASTRA 1KR,PAYLOAD,U,06012A,2024-03-03 12:03:42,594912,1.00273391,0.0002835,0.0806,280.4448,15.1352,66.2947,0,999,3733,0,0.00000128,0,4206173,0 ASTRA 1KR,1 29055U 06012A   24063.50257633  .00000128  00000-0  00000-0 0  9997,2 29055   0.0806 280.4448 0002835  15.1352  66.2947  1.00273391 37338,2006-012A,29055,42164.282,1436.074,35798.100,35774.193,0
GENERATED VIA SPACETRACK.ORG API,18 SPCS,43162,SBIRS GEO 3 (USA 282),PAYLOAD,U,18009A,2024-03-03 11:41:21,765408,1.00272339,0.000182,2.4916,331.8166,19.0749,186.7723,0,999,2246,0,0.00000139,0,4205710,0 SBIRS GEO 3 (USA 282),1 43162U 18009A   24063.48705747  .00000139  00000-0  00000+0 0  9993,2 43162   2.4916 331.8166 0001820  19.0749 186.7723  1.00272339 22464,2018-009A,43162,42164.577,1436.089,35794.116,35778.768,0
GENERATED VIA SPACETRACK.ORG API,18 SPCS,23712,USA 115,PAYLOAD,U,95060A,2024-03-03 11:18:56,507904,1.00274713,0.0003339,13.7619,9.7758,318.0378,243.6381,0,999,2326,0,-0.0000001,0,4205600,0 USA 115,1 23712U 95060A   24063.47148736 -.00000010  00000-0  00000+0 0  9991,2 23712  13.7619   9.7758 0003339 318.0378 243.6381  1.00274713 23263,1995-060A,23712,42163.911,1436.055,35799.855,35771.698,0
GENERATED VIA SPACETRACK.ORG API,18 SPCS,23712,USA 115,PAYLOAD,U,95060A,2024-03-03 11:18:56,507904,1.00274713,0.0003339,13.7619,9.7758,318.0378,243.6381,0,999,2450,0,-0.0000001,0,4206173,0 USA 115,1 23712U 95060A   24063.47148736 -.00000010  00000-0  00000-0 0  9992,2 23712  13.7619   9.7758 0003339 318.0378 243.6381  1.00274713 24501,1995-060A,23712,42163.911,1436.055,35799.855,35771.698,0
GENERATED VIA SPACETRACK.ORG API,18 SPCS,38697,TITAN 3C TRANSTAGE DEB *,DEBRIS,U,68081X,2024-03-03 11:08:26,194848,1.01474442,0.0391588,3.757,34.3583,359.5494,0.5947,0,999,6637,0,-0.00000195,0,4207947,0 TITAN 3C TRANSTAGE DEB *,1 38697U 68081X   24063.46419207 -.00000195  00000-0  00000+0 0  9999,2 38697   3.7570  34.3583 0391588 359.5494   0.5947  1.01474442 66370,1968-081X,38697,41830.918,1419.077,37090.831,33814.734,0
GENERATED VIA SPACETRACK.ORG API,18 SPCS,38697,TITAN 3C TRANSTAGE DEB *,DEBRIS,U,68081X,2024-03-03 11:08:26,194848,1.01474442,0.0391588,3.757,34.3583,359.5494,0.5947,0,999,6638,0,-0.00000195,0,4208022,0 TITAN 3C TRANSTAGE DEB *,1 38697U 68081X   24063.46419207 -.00000195  00000-0  00000-0 0  9990,2 38697   3.7570  34.3583 0391588 359.5494   0.5947  1.01474442 66381,1968-081X,38697,41830.918,1419.077,37090.831,33814.734,0
GENERATED VIA SPACETRACK.ORG API,18 SPCS,8832,TITAN 3C TRANSTAGE DEB,DEBRIS,U,76023J,2024-03-03 10:41:14,670816,0.98258765,0.0137437,20.1011,53.2791,73.5015,289.6749,0,999,10939,0,-0.00000075,0,4206173,0 TITAN 3C TRANSTAGE DEB,1 08832U 76023J   24063.44530869 -.00000075  00000-0  00000-0 0  9996,2 08832  20.1011  53.2791 0137437  73.5015 289.6749  0.98258765109398,1976-023J,8832,42738.667,1465.518,36947.920,35773.145,0
GENERATED VIA SPACETRACK.ORG API,18 SPCS,44307,YAMAL 601,PAYLOAD,U,19031A,2024-03-03 10:28:27,759360,1.00270453,0.0002371,0.0095,165.6984,184.5497,17.5435,0,999,1753,0,0.00000128,0,4205998,0 YAMAL 601,1 44307U 19031A   24063.43643240  .00000128  00000-0  00000+0 0  9993,2 44307   0.0095 165.6984 0002371 184.5497  17.5435  1.00270453 17537,2019-031A,44307,42165.105,1436.116,35796.968,35776.973,0
GENERATED VIA SPACETRACK.ORG API,18 SPCS,42915,TDRS 13,PAYLOAD,U,17047A,2024-03-03 10:11:25,207584,1.00272044,0.0014023,3.7305,342.4255,106.207,214.3809,0,999,2396,0,-0.00000088,0,4206173,0 TDRS 13,1 42915U 17047A   24063.42459731 -.00000088  00000-0  00000-0 0  9997,2 42915   3.7305 342.4255 0014023 106.2070 214.3809  1.00272044 23969,2017-047A,42915,42164.659,1436.093,35845.652,35727.397,0
GENERATED VIA SPACETRACK.ORG API,18 SPCS,41937,SBIRS GEO 4 (USA 273),PAYLOAD,U,17004A,2024-03-03 09:46:59,49696,1.00271494,0.0002352,1.4562,349.6945,356.0626,225.8343,0,999,2622,0,-0.00000134,0,4206173,0 SBIRS GEO 4 (USA 273),1 41937U 17004A   24063.40762789 -.00000134  00000-0  00000-0 0  9993,2 41937   1.4562 349.6945 0002352 356.0626 225.8343  1.00271494 26221,2017-004A,41937,42164.814,1436.101,35796.596,35776.761,0
GENERATED VIA SPACETRACK.ORG API,18 SPCS,43454,TITAN 3C TRANSTAGE DEB,DEBRIS,U,69013M,2024-03-03 09:39:07,796448,1.02845248,0.0561169,1.4734,246.9059,212.3064,143.3529,0,999,2203,0,-0.00000168,0,4207477,0 TITAN 3C TRANSTAGE DEB,1 43454U 69013M   24063.40217357 -.00000168  00000-0  00000+0 0  9998,2 43454   1.4734 246.9059 0561169 212.3064 143.3529  1.02845248 22030,1969-013M,43454,41458.383,1400.162,37406.763,32753.732,0
GENERATED VIA SPACETRACK.ORG API,18 SPCS,43454,TITAN 3C TRANSTAGE DEB,DEBRIS,U,69013M,2024-03-03 09:39:07,796448,1.02845248,0.0561169,1.4734,246.9059,212.3064,143.3529,0,999,2203,0,-0.00000168,0,4208022,0 TITAN 3C TRANSTAGE DEB,1 43454U 69013M   24063.40217357 -.00000168  00000-0  00000-0 0  9999,2 43454   1.4734 246.9059 0561169 212.3064 143.3529  1.02845248 22030,1969-013M,43454,41458.383,1400.162,37406.763,32753.732,0
GENERATED VIA SPACETRACK.ORG API,18 SPCS,22988,USA 99,PAYLOAD,U,94009A,2024-03-03 08:50:39,720192,1.00273447,0.0003149,16.3441,36.5533,310.5695,217.1992,0,999,2458,0,-0.00000189,0,4206173,0 USA 99,1 22988U 94009A   24063.36851528 -.00000189  00000-0  00000-0 0  9993,2 22988  16.3441  36.5533 0003149 310.5695 217.1992  1.00273447 24589,1994-009A,22988,42164.266,1436.073,35799.409,35772.854,0
GENERATED VIA SPACETRACK.ORG API,18 SPCS,33436,ASTRA 1M,PAYLOAD,U,08057A,2024-03-03 06:53:55,653216,1.00270009,0.0001305,0.0176,120.2115,280.1506,243.8496,0,999,5609,0,0.00000128,0,4205728,0 ASTRA 1M,1 33436U 08057A   24063.28744969  .00000128  00000-0  00000+0 0  9993,2 33436   0.0176 120.2115 0001305 280.1506 243.8496  1.00270009 56093,2008-057A,33436,42165.230,1436.122,35792.597,35781.592,0
GENERATED VIA SPACETRACK.ORG API,18 SPCS,44479,AMOS 17,PAYLOAD,U,19050A,2024-03-03 06:53:18,59712,1.00269429,0.0002098,0.0142,108.8931,260.2209,272.7482,0,999,1680,0,0.00000118,0,4206075,0 AMOS 17,1 44479U 19050A   24063.28701458  .00000118  00000-0  00000+0 0  9992,2 44479   0.0142 108.8931 0002098 260.2209 272.7482  1.00269429 16807,2019-050A,44479,42165.392,1436.131,35796.104,35778.411,0
GENERATED VIA SPACETRACK.ORG API,18 SPCS,44479,AMOS 17,PAYLOAD,U,19050A,2024-03-03 06:53:18,59712,1.00269429,0.0002098,0.0142,108.8931,260.2209,272.7482,0,999,1680,0,0.00000117,0,4206173,0 AMOS 17,1 44479U 19050A   24063.28701458  .00000117  00000-0  00000-0 0  9992,2 44479   0.0142 108.8931 0002098 260.2209 272.7482  1.00269429 16807,2019-050A,44479,42165.392,1436.131,35796.104,35778.411,0
GENERATED VIA SPACETRACK.ORG API,18 SPCS,44457,COSMOS 2539,PAYLOAD,U,19048A,2024-03-03 06:51:55,353312,1.00272564,0.0000136,0.0138,127.4402,258.3659,250.708,0,999,1683,0,0.0000009,0,4205887,0 COSMOS 2539,1 44457U 19048A   24063.28605733  .00000090  00000-0  00000+0 0  9993,2 44457   0.0138 127.4402 0000136 258.3659 250.7080  1.00272564 16833,2019-048A,44457,42164.514,1436.086,35786.952,35785.805,0
GENERATED VIA SPACETRACK.ORG API,18 SPCS,25967,UFO 10 (USA 146),PAYLOAD,U,99063A,2024-03-03 06:34:42,726432,1.00268617,0.0003793,9.3964,31.0902,278.625,287.5697,0,999,8896,0,-0.00000179,0,4206173,0 UFO 10 (USA 146),1 25967U 99063A   24063.27410563 -.00000179  00000-0  00000-0 0  9997,2 25967   9.3964  31.0902 0003793 278.6250 287.5697  1.00268617 88965,1999-063A,25967,42165.620,1436.142,35803.479,35771.492,0
